<xml>
<item>
<COMMENT>GENERATED VIA SPACETRACK.ORG API</COMMENT>
<ORIGINATOR>18 SPCS</ORIGINATOR>
<NORAD_CAT_ID>55917</NORAD_CAT_ID>
<OBJECT_NAME>STARLINK-5855</OBJECT_NAME>
<OBJECT_TYPE>PAYLOAD</OBJECT_TYPE>
<CLASSIFICATION_TYPE>U</CLASSIFICATION_TYPE>
<INTLDES>23037D</INTLDES>
<EPOCH>2023-11-06 08:45:07</EPOCH>
<EPOCH_MICROSECONDS>297056</EPOCH_MICROSECONDS>
<MEAN_MOTION>15.01905659</MEAN_MOTION>
<ECCENTRICITY>0.0003511</ECCENTRICITY>
<INCLINATION>70</INCLINATION>
<RA_OF_ASC_NODE>297.8632</RA_OF_ASC_NODE>
<ARG_OF_PERICENTER>300.046</ARG_OF_PERICENTER>
<MEAN_ANOMALY>60.0352</MEAN_ANOMALY>
<EPHEMERIS_TYPE>0</EPHEMERIS_TYPE>
<ELEMENT_SET_NO>999</ELEMENT_SET_NO>
<REV_AT_EPOCH>3553</REV_AT_EPOCH>
<BSTAR>0.0024585</BSTAR>
<MEAN_MOTION_DOT>0.00032256</MEAN_MOTION_DOT>
<MEAN_MOTION_DDOT>0</MEAN_MOTION_DDOT>
<FILE>4074285</FILE>
<TLE_LINE0>0 STARLINK-5855</TLE_LINE0>
<TLE_LINE1>1 55917U 23037D 23310.36466779 .00032256 00000-0 24585-2 0 9993</TLE_LINE1>
<TLE_LINE2>2 55917 70.0000 297.8632 0003511 300.0460 60.0352 15.01905659 35539</TLE_LINE2>
<OBJECT_ID>2023-037D</OBJECT_ID>
<OBJECT_NUMBER>55917</OBJECT_NUMBER>
<SEMIMAJOR_AXIS>6939.157</SEMIMAJOR_AXIS>
<PERIOD>95.878</PERIOD>
<APOGEE>563.459</APOGEE>
<PERIGEE>558.586</PERIGEE>
<DECAYED>0</DECAYED>
</item>
<item>
<COMMENT>GENERATED VIA SPACETRACK.ORG API</COMMENT>
<ORIGINATOR>18 SPCS</ORIGINATOR>
<NORAD_CAT_ID>49133</NORAD_CAT_ID>
<OBJECT_NAME>STARLINK-3077</OBJECT_NAME>
<OBJECT_TYPE>PAYLOAD</OBJECT_TYPE>
<CLASSIFICATION_TYPE>U</CLASSIFICATION_TYPE>
<INTLDES>21082D</INTLDES>
<EPOCH>2023-11-06 09:28:43</EPOCH>
<EPOCH_MICROSECONDS>969440</EPOCH_MICROSECONDS>
<MEAN_MOTION>14.9834977</MEAN_MOTION>
<ECCENTRICITY>0.0002654</ECCENTRICITY>
<INCLINATION>70</INCLINATION>
<RA_OF_ASC_NODE>288.4339</RA_OF_ASC_NODE>
<ARG_OF_PERICENTER>261.4723</ARG_OF_PERICENTER>
<MEAN_ANOMALY>98.6136</MEAN_ANOMALY>
<EPHEMERIS_TYPE>0</EPHEMERIS_TYPE>
<ELEMENT_SET_NO>999</ELEMENT_SET_NO>
<REV_AT_EPOCH>11801</REV_AT_EPOCH>
<BSTAR>0.00037409</BSTAR>
<MEAN_MOTION_DOT>0.00004376</MEAN_MOTION_DOT>
<MEAN_MOTION_DDOT>0</MEAN_MOTION_DDOT>
<FILE>4074285</FILE>
<TLE_LINE0>0 STARLINK-3077</TLE_LINE0>
<TLE_LINE1>1 49133U 21082D 23310.39495335 .00004376 00000-0 37409-3 0 9999</TLE_LINE1>
<TLE_LINE2>2 49133 70.0000 288.4339 0002654 261.4723 98.6136 14.98349770118014</TLE_LINE2>
<OBJECT_ID>2021-082D</OBJECT_ID>
<OBJECT_NUMBER>49133</OBJECT_NUMBER>
<SEMIMAJOR_AXIS>6950.132</SEMIMAJOR_AXIS>
<PERIOD>96.106</PERIOD>
<APOGEE>573.841</APOGEE>
<PERIGEE>570.152</PERIGEE>
<DECAYED>0</DECAYED>
</item>
<item>
<COMMENT>GENERATED VIA SPACETRACK.ORG API</COMMENT>
<ORIGINATOR>18 SPCS</ORIGINATOR>
<NORAD_CAT_ID>56781</NORAD_CAT_ID>
<OBJECT_NAME>STARLINK-5989</OBJECT_NAME>
<OBJECT_TYPE>PAYLOAD</OBJECT_TYPE>
<CLASSIFICATION_TYPE>U</CLASSIFICATION_TYPE>
<INTLDES>23078Q</INTLDES>
<EPOCH>2023-11-06 11:08:42</EPOCH>
<EPOCH_MICROSECONDS>604800</EPOCH_MICROSECONDS>
<MEAN_MOTION>14.983509</MEAN_MOTION>
<ECCENTRICITY>0.0002429</ECCENTRICITY>
<INCLINATION>70</INCLINATION>
<RA_OF_ASC_NODE>338.3349</RA_OF_ASC_NODE>
<ARG_OF_PERICENTER>264.7262</ARG_OF_PERICENTER>
<MEAN_ANOMALY>95.3619</MEAN_ANOMALY>
<EPHEMERIS_TYPE>0</EPHEMERIS_TYPE>
<ELEMENT_SET_NO>999</ELEMENT_SET_NO>
<REV_AT_EPOCH>2498</REV_AT_EPOCH>
<BSTAR>-0.000044504</BSTAR>
<MEAN_MOTION_DOT>-0.00000624</MEAN_MOTION_DOT>
<MEAN_MOTION_DDOT>0</MEAN_MOTION_DDOT>
<FILE>4073583</FILE>
<TLE_LINE0>0 STARLINK-5989</TLE_LINE0>
<TLE_LINE1>1 56781U 23078Q 23310.46438200 -.00000624 00000-0 -44504-4 0 9998</TLE_LINE1>
<TLE_LINE2>2 56781 70.0000 338.3349 0002429 264.7262 95.3619 14.98350900 24980</TLE_LINE2>
<OBJECT_ID>2023-078Q</OBJECT_ID>
<OBJECT_NUMBER>56781</OBJECT_NUMBER>
<SEMIMAJOR_AXIS>6950.128</SEMIMAJOR_AXIS>
<PERIOD>96.106</PERIOD>
<APOGEE>573.681</APOGEE>
<PERIGEE>570.305</PERIGEE>
<DECAYED>0</DECAYED>
</item>
<item>
<COMMENT>GENERATED VIA SPACETRACK.ORG API</COMMENT>
<ORIGINATOR>18 SPCS</ORIGINATOR>
<NORAD_CAT_ID>56781</NORAD_CAT_ID>
<OBJECT_NAME>STARLINK-5989</OBJECT_NAME>
<OBJECT_TYPE>PAYLOAD</OBJECT_TYPE>
<CLASSIFICATION_TYPE>U</CLASSIFICATION_TYPE>
<INTLDES>23078Q</INTLDES>
<EPOCH>2023-11-06 11:08:42</EPOCH>
<EPOCH_MICROSECONDS>604800</EPOCH_MICROSECONDS>
<MEAN_MOTION>14.983509</MEAN_MOTION>
<ECCENTRICITY>0.0002429</ECCENTRICITY>
<INCLINATION>70</INCLINATION>
<RA_OF_ASC_NODE>338.3349</RA_OF_ASC_NODE>
<ARG_OF_PERICENTER>264.7262</ARG_OF_PERICENTER>
<MEAN_ANOMALY>95.3619</MEAN_ANOMALY>
<EPHEMERIS_TYPE>0</EPHEMERIS_TYPE>
<ELEMENT_SET_NO>999</ELEMENT_SET_NO>
<REV_AT_EPOCH>2472</REV_AT_EPOCH>
<BSTAR>-0.000044504</BSTAR>
<MEAN_MOTION_DOT>-0.00000624</MEAN_MOTION_DOT>
<MEAN_MOTION_DDOT>0</MEAN_MOTION_DDOT>
<FILE>4074285</FILE>
<TLE_LINE0>0 STARLINK-5989</TLE_LINE0>
<TLE_LINE1>1 56781U 23078Q 23310.46438200 -.00000624 00000-0 -44504-4 0 9998</TLE_LINE1>
<TLE_LINE2>2 56781 70.0000 338.3349 0002429 264.7262 95.3619 14.98350900 24722</TLE_LINE2>
<OBJECT_ID>2023-078Q</OBJECT_ID>
<OBJECT_NUMBER>56781</OBJECT_NUMBER>
<SEMIMAJOR_AXIS>6950.128</SEMIMAJOR_AXIS>
<PERIOD>96.106</PERIOD>
<APOGEE>573.681</APOGEE>
<PERIGEE>570.305</PERIGEE>
<DECAYED>0</DECAYED>
</item>
<item>
<COMMENT>GENERATED VIA SPACETRACK.ORG API</COMMENT>
<ORIGINATOR>18 SPCS</ORIGINATOR>
<NORAD_CAT_ID>55753</NORAD_CAT_ID>
<OBJECT_NAME>STARLINK-5617</OBJECT_NAME>
<OBJECT_TYPE>PAYLOAD</OBJECT_TYPE>
<CLASSIFICATION_TYPE>U</CLASSIFICATION_TYPE>
<INTLDES>23028N</INTLDES>
<EPOCH>2023-11-06 12:25:08</EPOCH>
<EPOCH_MICROSECONDS>143968</EPOCH_MICROSECONDS>
<MEAN_MOTION>14.98345545</MEAN_MOTION>
<ECCENTRICITY>0.0002869</ECCENTRICITY>
<INCLINATION>70</INCLINATION>
<RA_OF_ASC_NODE>238.1163</RA_OF_ASC_NODE>
<ARG_OF_PERICENTER>263.1889</ARG_OF_PERICENTER>
<MEAN_ANOMALY>96.8944</MEAN_ANOMALY>
<EPHEMERIS_TYPE>0</EPHEMERIS_TYPE>
<ELEMENT_SET_NO>999</ELEMENT_SET_NO>
<REV_AT_EPOCH>3809</REV_AT_EPOCH>
<BSTAR>-0.000059618</BSTAR>
<MEAN_MOTION_DOT>-0.00000805</MEAN_MOTION_DOT>
<MEAN_MOTION_DDOT>0</MEAN_MOTION_DDOT>
<FILE>4074285</FILE>
<TLE_LINE0>0 STARLINK-5617</TLE_LINE0>
<TLE_LINE1>1 55753U 23028N 23310.51745537 -.00000805 00000-0 -59618-4 0 9994</TLE_LINE1>
<TLE_LINE2>2 55753 70.0000 238.1163 0002869 263.1889 96.8944 14.98345545 38098</TLE_LINE2>
<OBJECT_ID>2023-028N</OBJECT_ID>
<OBJECT_NUMBER>55753</OBJECT_NUMBER>
<SEMIMAJOR_AXIS>6950.145</SEMIMAJOR_AXIS>
<PERIOD>96.106</PERIOD>
<APOGEE>574.004</APOGEE>
<PERIGEE>570.016</PERIGEE>
<DECAYED>0</DECAYED>
</item>
<item>
<COMMENT>GENERATED VIA SPACETRACK.ORG API</COMMENT>
<ORIGINATOR>18 SPCS</ORIGINATOR>
<NORAD_CAT_ID>55753</NORAD_CAT_ID>
<OBJECT_NAME>STARLINK-5617</OBJECT_NAME>
<OBJECT_TYPE>PAYLOAD</OBJECT_TYPE>
<CLASSIFICATION_TYPE>U</CLASSIFICATION_TYPE>
<INTLDES>23028N</INTLDES>
<EPOCH>2023-11-06 12:25:08</EPOCH>
<EPOCH_MICROSECONDS>143968</EPOCH_MICROSECONDS>
<MEAN_MOTION>14.98345545</MEAN_MOTION>
<ECCENTRICITY>0.0002869</ECCENTRICITY>
<INCLINATION>70</INCLINATION>
<RA_OF_ASC_NODE>238.1163</RA_OF_ASC_NODE>
<ARG_OF_PERICENTER>263.1889</ARG_OF_PERICENTER>
<MEAN_ANOMALY>96.8944</MEAN_ANOMALY>
<EPHEMERIS_TYPE>0</EPHEMERIS_TYPE>
<ELEMENT_SET_NO>999</ELEMENT_SET_NO>
<REV_AT_EPOCH>3809</REV_AT_EPOCH>
<BSTAR>-0.000059618</BSTAR>
<MEAN_MOTION_DOT>-0.00000805</MEAN_MOTION_DOT>
<MEAN_MOTION_DDOT>0</MEAN_MOTION_DDOT>
<FILE>4074384</FILE>
<TLE_LINE0>0 STARLINK-5617</TLE_LINE0>
<TLE_LINE1>1 55753U 23028N 23310.51745537 -.00000805 00000-0 -59618-4 0 9994</TLE_LINE1>
<TLE_LINE2>2 55753 70.0000 238.1163 0002869 263.1889 96.8944 14.98345545 38098</TLE_LINE2>
<OBJECT_ID>2023-028N</OBJECT_ID>
<OBJECT_NUMBER>55753</OBJECT_NUMBER>
<SEMIMAJOR_AXIS>6950.145</SEMIMAJOR_AXIS>
<PERIOD>96.106</PERIOD>
<APOGEE>574.004</APOGEE>
<PERIGEE>570.016</PERIGEE>
<DECAYED>0</DECAYED>
</item>
<item>
<COMMENT>GENERATED VIA SPACETRACK.ORG API</COMMENT>
<ORIGINATOR>18 SPCS</ORIGINATOR>
<NORAD_CAT_ID>55744</NORAD_CAT_ID>
<OBJECT_NAME>STARLINK-5601</OBJECT_NAME>
<OBJECT_TYPE>PAYLOAD</OBJECT_TYPE>
<CLASSIFICATION_TYPE>U</CLASSIFICATION_TYPE>
<INTLDES>23028D</INTLDES>
<EPOCH>2023-11-06 13:01:27</EPOCH>
<EPOCH_MICROSECONDS>672960</EPOCH_MICROSECONDS>
<MEAN_MOTION>14.98332483</MEAN_MOTION>
<ECCENTRICITY>0.000241</ECCENTRICITY>
<INCLINATION>70</INCLINATION>
<RA_OF_ASC_NODE>238.2045</RA_OF_ASC_NODE>
<ARG_OF_PERICENTER>284.2912</ARG_OF_PERICENTER>
<MEAN_ANOMALY>75.7979</MEAN_ANOMALY>
<EPHEMERIS_TYPE>0</EPHEMERIS_TYPE>
<ELEMENT_SET_NO>999</ELEMENT_SET_NO>
<REV_AT_EPOCH>3809</REV_AT_EPOCH>
<BSTAR>0.000071956</BSTAR>
<MEAN_MOTION_DOT>0.00000766</MEAN_MOTION_DOT>
<MEAN_MOTION_DDOT>0</MEAN_MOTION_DDOT>
<FILE>4074285</FILE>
<TLE_LINE0>0 STARLINK-5601</TLE_LINE0>
<TLE_LINE1>1 55744U 23028D 23310.54268140 .00000766 00000-0 71956-4 0 9990</TLE_LINE1>
<TLE_LINE2>2 55744 70.0000 238.2045 0002410 284.2912 75.7979 14.98332483 38092</TLE_LINE2>
<OBJECT_ID>2023-028D</OBJECT_ID>
<OBJECT_NUMBER>55744</OBJECT_NUMBER>
<SEMIMAJOR_AXIS>6950.185</SEMIMAJOR_AXIS>
<PERIOD>96.107</PERIOD>
<APOGEE>573.725</APOGEE>
<PERIGEE>570.375</PERIGEE>
<DECAYED>0</DECAYED>
</item>

</xml>
